{
  "type": "FeatureCollection",
  "features": [
    {
      "type": "Feature",
      "properties": {
        "norad_id": 29816,
        "name": "FENGYUN 1C DEB",
        "group": "fengyun-1c-debris",
        "lat": 72.94762480896738,
        "lon": 57.95339674679166,
        "alt_km": 681.9812818062828,
        "timestamp": "2025-12-12T20:43:07.306549+00:00",
        "meta_object_name": "FENGYUN 1C DEB",
        "meta_object_id": "1999-025DJ",
        "meta_epoch": "2025-12-12T04:11:44.383200",
        "meta_mean_motion": 14.44290106,
        "meta_eccentricity": 0.02376603,
        "meta_inclination": 98.9934,
        "meta_ra_of_asc_node": 206.1396,
        "meta_arg_of_pericenter": 178.7883,
        "meta_mean_anomaly": 310.7336,
        "meta_ephemeris_type": 0,
        "meta_classification_type": "U",
        "meta_norad_cat_id": 29816,
        "meta_element_set_no": 999,
        "meta_rev_at_epoch": 98179,
        "meta_bstar": 0.001696755,
        "meta_mean_motion_dot": 8.197e-05,
        "meta_mean_motion_ddot": 0,
        "tle_line1": "1 29816U 99025DJ  25346.17481925  .00008197  00000+0  16968-2 0  9994",
        "tle_line2": "2 29816  98.9934 206.1396 0237660 178.7883 310.7336 14.44290106981791"
      },
      "geometry": {
        "type": "Point",
        "coordinates": [
          57.95339674679166,
          72.94762480896738
        ]
      }
    },
    {
      "type": "Feature",
      "properties": {
        "norad_id": 29817,
        "name": "FENGYUN 1C DEB",
        "group": "fengyun-1c-debris",
        "lat": 33.002731348041436,
        "lon": -29.554428061685957,
        "alt_km": 834.3494592002726,
        "timestamp": "2025-12-12T20:43:07.306559+00:00",
        "meta_object_name": "FENGYUN 1C DEB",
        "meta_object_id": "1999-025DK",
        "meta_epoch": "2025-12-12T05:35:12.156576",
        "meta_mean_motion": 14.14251403,
        "meta_eccentricity": 0.00123013,
        "meta_inclination": 98.5576,
        "meta_ra_of_asc_node": 335.4538,
        "meta_arg_of_pericenter": 17.0585,
        "meta_mean_anomaly": 48.1539,
        "meta_ephemeris_type": 0,
        "meta_classification_type": "U",
        "meta_norad_cat_id": 29817,
        "meta_element_set_no": 999,
        "meta_rev_at_epoch": 97388,
        "meta_bstar": 0.00049494473,
        "meta_mean_motion_dot": 9.04e-06,
        "meta_mean_motion_ddot": 0,
        "tle_line1": "1 29817U 99025DK  25346.23277959  .00000904  00000+0  49494-3 0  9991",
        "tle_line2": "2 29817  98.5576 335.4538 0012301  17.0585  48.1539 14.14251403973883"
      },
      "geometry": {
        "type": "Point",
        "coordinates": [
          -29.554428061685957,
          33.002731348041436
        ]
      }
    },
    {
      "type": "Feature",
      "properties": {
        "norad_id": 29818,
        "name": "FENGYUN 1C DEB",
        "group": "fengyun-1c-debris",
        "lat": 53.48272424669369,
        "lon": 56.137117930827216,
        "alt_km": 886.8098697143696,
        "timestamp": "2025-12-12T20:43:07.306570+00:00",
        "meta_object_name": "FENGYUN 1C DEB",
        "meta_object_id": "1999-025DL",
        "meta_epoch": "2025-12-12T07:00:14.044608",
        "meta_mean_motion": 14.04500558,
        "meta_eccentricity": 0.01153076,
        "meta_inclination": 98.7212,
        "meta_ra_of_asc_node": 223.6235,
        "meta_arg_of_pericenter": 27.1138,
        "meta_mean_anomaly": 89.3602,
        "meta_ephemeris_type": 0,
        "meta_classification_type": "U",
        "meta_norad_cat_id": 29818,
        "meta_element_set_no": 999,
        "meta_rev_at_epoch": 96803,
        "meta_bstar": 0.00022992147,
        "meta_mean_motion_dot": 3.47e-06,
        "meta_mean_motion_ddot": 0,
        "tle_line1": "1 29818U 99025DL  25346.29182922  .00000347  00000+0  22992-3 0  9998",
        "tle_line2": "2 29818  98.7212 223.6235 0115307  27.1138  89.3602 14.04500558968037"
      },
      "geometry": {
        "type": "Point",
        "coordinates": [
          56.137117930827216,
          53.48272424669369
        ]
      }
    },
    {
      "type": "Feature",
      "properties": {
        "norad_id": 29819,
        "name": "FENGYUN 1C DEB",
        "group": "fengyun-1c-debris",
        "lat": -54.98091497980622,
        "lon": 137.92990525317043,
        "alt_km": 1029.7381827775516,
        "timestamp": "2025-12-12T20:43:07.306580+00:00",
        "meta_object_name": "FENGYUN 1C DEB",
        "meta_object_id": "1999-025DM",
        "meta_epoch": "2025-12-12T04:28:12.178848",
        "meta_mean_motion": 14.02194806,
        "meta_eccentricity": 0.01914859,
        "meta_inclination": 98.732,
        "meta_ra_of_asc_node": 329.9509,
        "meta_arg_of_pericenter": 68.6183,
        "meta_mean_anomaly": 351.1724,
        "meta_ephemeris_type": 0,
        "meta_classification_type": "U",
        "meta_norad_cat_id": 29819,
        "meta_element_set_no": 999,
        "meta_rev_at_epoch": 96612,
        "meta_bstar": 0.00061811406,
        "meta_mean_motion_dot": 1.071e-05,
        "meta_mean_motion_ddot": 0,
        "tle_line1": "1 29819U 99025DM  25346.18625207  .00001071  00000+0  61811-3 0  9993",
        "tle_line2": "2 29819  98.7320 329.9509 0191485  68.6183 351.1724 14.02194806966129"
      },
      "geometry": {
        "type": "Point",
        "coordinates": [
          137.92990525317043,
          -54.98091497980622
        ]
      }
    },
    {
      "type": "Feature",
      "properties": {
        "norad_id": 29820,
        "name": "FENGYUN 1C DEB",
        "group": "fengyun-1c-debris",
        "lat": -33.81839702448513,
        "lon": 167.93268264085262,
        "alt_km": 842.7511737298573,
        "timestamp": "2025-12-12T20:43:07.306590+00:00",
        "meta_object_name": "FENGYUN 1C DEB",
        "meta_object_id": "1999-025DN",
        "meta_epoch": "2025-12-11T23:27:55.712160",
        "meta_mean_motion": 14.02602288,
        "meta_eccentricity": 0.0072054,
        "meta_inclination": 98.8317,
        "meta_ra_of_asc_node": 353.0524,
        "meta_arg_of_pericenter": 239.8861,
        "meta_mean_anomaly": 185.6104,
        "meta_ephemeris_type": 0,
        "meta_classification_type": "U",
        "meta_norad_cat_id": 29820,
        "meta_element_set_no": 999,
        "meta_rev_at_epoch": 96549,
        "meta_bstar": 0.0008048,
        "meta_mean_motion_dot": 1.226e-05,
        "meta_mean_motion_ddot": 0,
        "tle_line1": "1 29820U 99025DN  25345.97772815  .00001226  00000+0  80480-3 0  9994",
        "tle_line2": "2 29820  98.8317 353.0524 0072054 239.8861 185.6104 14.02602288965497"
      },
      "geometry": {
        "type": "Point",
        "coordinates": [
          167.93268264085262,
          -33.81839702448513
        ]
      }
    },
    {
      "type": "Feature",
      "properties": {
        "norad_id": 29821,
        "name": "FENGYUN 1C DEB",
        "group": "fengyun-1c-debris",
        "lat": -81.11518724070135,
        "lon": 133.90303580386222,
        "alt_km": 1094.5370354638217,
        "timestamp": "2025-12-12T20:43:07.306600+00:00",
        "meta_object_name": "FENGYUN 1C DEB",
        "meta_object_id": "1999-025DP",
        "meta_epoch": "2025-12-12T02:35:59.203968",
        "meta_mean_motion": 14.11063032,
        "meta_eccentricity": 0.03764061,
        "meta_inclination": 98.8737,
        "meta_ra_of_asc_node": 41.1081,
        "meta_arg_of_pericenter": 122.4865,
        "meta_mean_anomaly": 272.0321,
        "meta_ephemeris_type": 0,
        "meta_classification_type": "U",
        "meta_norad_cat_id": 29821,
        "meta_element_set_no": 999,
        "meta_rev_at_epoch": 96502,
        "meta_bstar": 0.0011484504,
        "meta_mean_motion_dot": 3.986e-05,
        "meta_mean_motion_ddot": 0,
        "tle_line1": "1 29821U 99025DP  25346.10832412  .00003986  00000+0  11485-2 0  9994",
        "tle_line2": "2 29821  98.8737  41.1081 0376406 122.4865 272.0321 14.11063032965025"
      },
      "geometry": {
        "type": "Point",
        "coordinates": [
          133.90303580386222,
          -81.11518724070135
        ]
      }
    },
    {
      "type": "Feature",
      "properties": {
        "norad_id": 29827,
        "name": "FENGYUN 1C DEB",
        "group": "fengyun-1c-debris",
        "lat": -72.74444870421969,
        "lon": 128.89320822515123,
        "alt_km": 819.9158063032446,
        "timestamp": "2025-12-12T20:43:07.306610+00:00",
        "meta_object_name": "FENGYUN 1C DEB",
        "meta_object_id": "1999-025DV",
        "meta_epoch": "2025-12-11T23:33:10.578816",
        "meta_mean_motion": 14.21685659,
        "meta_eccentricity": 0.0025063,
        "meta_inclination": 98.6023,
        "meta_ra_of_asc_node": 337.1992,
        "meta_arg_of_pericenter": 324.7541,
        "meta_mean_anomaly": 99.3588,
        "meta_ephemeris_type": 0,
        "meta_classification_type": "U",
        "meta_norad_cat_id": 29827,
        "meta_element_set_no": 999,
        "meta_rev_at_epoch": 97852,
        "meta_bstar": 0.00052424,
        "meta_mean_motion_dot": 1.112e-05,
        "meta_mean_motion_ddot": 0,
        "tle_line1": "1 29827U 99025DV  25345.98137244  .00001112  00000+0  52424-3 0  9994",
        "tle_line2": "2 29827  98.6023 337.1992 0025063 324.7541  99.3588 14.21685659978524"
      },
      "geometry": {
        "type": "Point",
        "coordinates": [
          128.89320822515123,
          -72.74444870421969
        ]
      }
    }
  ]
}